{
  "links" : {
    "next" : "https://api.nasa.gov/neo/rest/v1/feed?start_date=2003-06-09&end_date=2003-06-09&detailed=true&api_key=t0TVs3DtDT2H8Oy2Zy8m2eVrNsAVKAexjcZXUckd",
    "prev" : "https://api.nasa.gov/neo/rest/v1/feed?start_date=2003-06-07&end_date=2003-06-07&detailed=true&api_key=t0TVs3DtDT2H8Oy2Zy8m2eVrNsAVKAexjcZXUckd",
    "self" : "https://api.nasa.gov/neo/rest/v1/feed?start_date=2003-06-08&end_date=2003-06-08&detailed=true&api_key=t0TVs3DtDT2H8Oy2Zy8m2eVrNsAVKAexjcZXUckd"
  },
  "element_count" : 9,
  "near_earth_objects" : {
    "2003-06-08" : [ {
      "links" : {
        "self" : "https://api.nasa.gov/neo/rest/v1/neo/3560773?api_key=t0TVs3DtDT2H8Oy2Zy8m2eVrNsAVKAexjcZXUckd"
      },
      "neo_reference_id" : "3560773",
      "name" : "(2011 FC29)",
      "nasa_jpl_url" : "http://ssd.jpl.nasa.gov/sbdb.cgi?sstr=3560773",
      "absolute_magnitude_h" : 20.8,
      "estimated_diameter" : {
        "kilometers" : {
          "estimated_diameter_min" : 0.1838886721,
          "estimated_diameter_max" : 0.411187571
        },
        "meters" : {
          "estimated_diameter_min" : 183.8886720703,
          "estimated_diameter_max" : 411.1875710413
        },
        "miles" : {
          "estimated_diameter_min" : 0.1142630881,
          "estimated_diameter_max" : 0.2555000322
        },
        "feet" : {
          "estimated_diameter_min" : 603.309310875,
          "estimated_diameter_max" : 1349.040630575
        }
      },
      "is_potentially_hazardous_asteroid" : false,
      "close_approach_data" : [ {
        "close_approach_date" : "2003-06-08",
        "epoch_date_close_approach" : 1055055600000,
        "relative_velocity" : {
          "kilometers_per_second" : "25.2929758285",
          "kilometers_per_hour" : "91054.7129825053",
          "miles_per_hour" : "56577.8576307128"
        },
        "miss_distance" : {
          "astronomical" : "0.4098945365",
          "lunar" : "159.4489746094",
          "kilometers" : "61319348",
          "miles" : "38102076"
        },
        "orbiting_body" : "Earth"
      } ],
      "orbital_data" : {
        "orbit_id" : "16",
        "orbit_determination_date" : "2017-04-21 06:19:36",
        "orbit_uncertainty" : "0",
        "minimum_orbit_intersection" : ".113472",
        "jupiter_tisserand_invariant" : "5.467",
        "epoch_osculation" : "2458000.5",
        "eccentricity" : ".4410302755210337",
        "semi_major_axis" : "1.121573950831696",
        "inclination" : "6.695729698949756",
        "ascending_node_longitude" : "21.80264433175816",
        "orbital_period" : "433.8506953895454",
        "perihelion_distance" : ".626925882279179",
        "perihelion_argument" : "357.9992093677456",
        "aphelion_distance" : "1.616222019384214",
        "perihelion_time" : "2458064.934718857123",
        "mean_anomaly" : "306.5334525562151",
        "mean_motion" : ".8297785478406656",
        "equinox" : "J2000"
      }
    }, {
      "links" : {
        "self" : "https://api.nasa.gov/neo/rest/v1/neo/3634713?api_key=t0TVs3DtDT2H8Oy2Zy8m2eVrNsAVKAexjcZXUckd"
      },
      "neo_reference_id" : "3634713",
      "name" : "(2013 GJ69)",
      "nasa_jpl_url" : "http://ssd.jpl.nasa.gov/sbdb.cgi?sstr=3634713",
      "absolute_magnitude_h" : 26.5,
      "estimated_diameter" : {
        "kilometers" : {
          "estimated_diameter_min" : 0.0133215567,
          "estimated_diameter_max" : 0.0297879063
        },
        "meters" : {
          "estimated_diameter_min" : 13.3215566698,
          "estimated_diameter_max" : 29.7879062798
        },
        "miles" : {
          "estimated_diameter_min" : 0.008277629,
          "estimated_diameter_max" : 0.0185093411
        },
        "feet" : {
          "estimated_diameter_min" : 43.7058959846,
          "estimated_diameter_max" : 97.7293544391
        }
      },
      "is_potentially_hazardous_asteroid" : false,
      "close_approach_data" : [ {
        "close_approach_date" : "2003-06-08",
        "epoch_date_close_approach" : 1055055600000,
        "relative_velocity" : {
          "kilometers_per_second" : "14.9257379906",
          "kilometers_per_hour" : "53732.6567661132",
          "miles_per_hour" : "33387.3833111441"
        },
        "miss_distance" : {
          "astronomical" : "0.2700829076",
          "lunar" : "105.0622558594",
          "kilometers" : "40403832",
          "miles" : "25105776"
        },
        "orbiting_body" : "Earth"
      } ],
      "orbital_data" : {
        "orbit_id" : "10",
        "orbit_determination_date" : "2017-04-06 08:46:08",
        "orbit_uncertainty" : "4",
        "minimum_orbit_intersection" : ".0201697",
        "jupiter_tisserand_invariant" : "3.436",
        "epoch_osculation" : "2458000.5",
        "eccentricity" : ".5412607014484346",
        "semi_major_axis" : "2.219015134749112",
        "inclination" : "6.624843455711059",
        "ascending_node_longitude" : "201.7008045475995",
        "orbital_period" : "1207.365670917767",
        "perihelion_distance" : "1.017949446390115",
        "perihelion_argument" : "11.06933484984238",
        "aphelion_distance" : "3.420080823108109",
        "perihelion_time" : "2457611.271046948487",
        "mean_anomaly" : "116.0563253318541",
        "mean_motion" : ".2981698160478172",
        "equinox" : "J2000"
      }
    }, {
      "links" : {
        "self" : "https://api.nasa.gov/neo/rest/v1/neo/3669253?api_key=t0TVs3DtDT2H8Oy2Zy8m2eVrNsAVKAexjcZXUckd"
      },
      "neo_reference_id" : "3669253",
      "name" : "(2014 HQ124)",
      "nasa_jpl_url" : "http://ssd.jpl.nasa.gov/sbdb.cgi?sstr=3669253",
      "absolute_magnitude_h" : 18.9,
      "estimated_diameter" : {
        "kilometers" : {
          "estimated_diameter_min" : 0.4411182,
          "estimated_diameter_max" : 0.9863702813
        },
        "meters" : {
          "estimated_diameter_min" : 441.1181999969,
          "estimated_diameter_max" : 986.3702813054
        },
        "miles" : {
          "estimated_diameter_min" : 0.2740980571,
          "estimated_diameter_max" : 0.6129018881
        },
        "feet" : {
          "estimated_diameter_min" : 1447.2382352778,
          "estimated_diameter_max" : 3236.1230737181
        }
      },
      "is_potentially_hazardous_asteroid" : true,
      "close_approach_data" : [ {
        "close_approach_date" : "2003-06-08",
        "epoch_date_close_approach" : 1055055600000,
        "relative_velocity" : {
          "kilometers_per_second" : "13.5600031355",
          "kilometers_per_hour" : "48816.0112879768",
          "miles_per_hour" : "30332.3710139098"
        },
        "miss_distance" : {
          "astronomical" : "0.0447097177",
          "lunar" : "17.392080307",
          "kilometers" : "6688478.5",
          "miles" : "4156027.75"
        },
        "orbiting_body" : "Earth"
      } ],
      "orbital_data" : {
        "orbit_id" : "46",
        "orbit_determination_date" : "2017-09-18 06:53:52",
        "orbit_uncertainty" : "1",
        "minimum_orbit_intersection" : ".00780919",
        "jupiter_tisserand_invariant" : "6.815",
        "epoch_osculation" : "2458000.5",
        "eccentricity" : ".2591852622152756",
        "semi_major_axis" : ".8508260810584923",
        "inclination" : "26.37052472766208",
        "ascending_node_longitude" : "257.563390477906",
        "orbital_period" : "286.6550638939651",
        "perihelion_distance" : ".6303045001397517",
        "perihelion_argument" : "144.5011455144463",
        "aphelion_distance" : "1.071347661977233",
        "perihelion_time" : "2458062.635208456209",
        "mean_anomaly" : "281.9665798316067",
        "mean_motion" : "1.255864784349895",
        "equinox" : "J2000"
      }
    } ]
  }
}